{
  "type": "FeatureCollection",
  "features": [
    {
      "type": "Feature",
      "properties": {
        "name": "Nyabarongo River",
        "type": "Major River",
        "length_km": 351,
        "basin": "Nile Basin",
        "description": "Longest river entirely within Rwanda. Rises in Nyungwe Forest, flows north through central Rwanda, joins Akanyaru to form the Kagera."
      },
      "geometry": {
        "type": "LineString",
        "coordinates": [
          [29.22, -2.48], [29.26, -2.44], [29.30, -2.40], [29.34, -2.37],
          [29.38, -2.33], [29.42, -2.28], [29.46, -2.24], [29.50, -2.20],
          [29.53, -2.16], [29.56, -2.13], [29.58, -2.09], [29.60, -2.05],
          [29.62, -2.01], [29.63, -1.97], [29.64, -1.93], [29.64, -1.89],
          [29.63, -1.85], [29.62, -1.81], [29.60, -1.78], [29.58, -1.74],
          [29.57, -1.70], [29.58, -1.66], [29.60, -1.63], [29.63, -1.60],
          [29.66, -1.57], [29.70, -1.55], [29.74, -1.53], [29.78, -1.52],
          [29.82, -1.51], [29.86, -1.50], [29.90, -1.50], [29.94, -1.51],
          [29.98, -1.52], [30.02, -1.54], [30.06, -1.56], [30.10, -1.59],
          [30.13, -1.62], [30.16, -1.66], [30.18, -1.70], [30.20, -1.74],
          [30.22, -1.78], [30.24, -1.82], [30.27, -1.86], [30.30, -1.90],
          [30.33, -1.93], [30.37, -1.96], [30.40, -1.98], [30.43, -2.01],
          [30.46, -2.05], [30.48, -2.09]
        ]
      }
    },
    {
      "type": "Feature",
      "properties": {
        "name": "Kagera River (Akagera)",
        "type": "Major River",
        "length_km": 597,
        "basin": "Nile Basin",
        "description": "Forms the Rwanda-Tanzania border. Considered the most distant headwater of the Nile."
      },
      "geometry": {
        "type": "LineString",
        "coordinates": [
          [30.48, -2.09], [30.50, -2.12], [30.52, -2.16], [30.53, -2.20],
          [30.55, -2.25], [30.56, -2.30], [30.57, -2.35], [30.58, -2.38],
          [30.60, -2.41], [30.63, -2.43], [30.66, -2.44], [30.70, -2.44],
          [30.74, -2.42], [30.77, -2.39], [30.80, -2.36], [30.82, -2.32],
          [30.83, -2.28], [30.835, -2.24], [30.84, -2.20], [30.84, -2.16],
          [30.84, -2.12], [30.84, -2.08], [30.84, -2.04], [30.84, -2.00],
          [30.84, -1.96], [30.84, -1.92], [30.84, -1.88], [30.84, -1.84],
          [30.84, -1.80], [30.84, -1.76], [30.84, -1.72], [30.84, -1.68],
          [30.84, -1.64], [30.84, -1.60], [30.84, -1.56], [30.84, -1.52],
          [30.84, -1.48], [30.83, -1.44], [30.82, -1.40], [30.80, -1.37],
          [30.78, -1.34], [30.75, -1.31], [30.72, -1.28], [30.69, -1.26],
          [30.66, -1.24], [30.63, -1.22], [30.60, -1.20], [30.57, -1.18],
          [30.54, -1.16], [30.51, -1.14], [30.48, -1.12]
        ]
      }
    },
    {
      "type": "Feature",
      "properties": {
        "name": "Akanyaru River",
        "type": "Major River",
        "length_km": 137,
        "basin": "Nile Basin",
        "description": "Forms part of the Rwanda-Burundi border, flows east to join the Nyabarongo."
      },
      "geometry": {
        "type": "LineString",
        "coordinates": [
          [29.20, -2.75], [29.24, -2.73], [29.28, -2.70], [29.33, -2.68],
          [29.38, -2.66], [29.43, -2.63], [29.48, -2.60], [29.53, -2.57],
          [29.58, -2.54], [29.63, -2.50], [29.68, -2.47], [29.73, -2.44],
          [29.78, -2.41], [29.83, -2.38], [29.88, -2.35], [29.93, -2.32],
          [29.98, -2.28], [30.03, -2.25], [30.08, -2.22], [30.13, -2.19],
          [30.18, -2.16], [30.23, -2.14], [30.28, -2.12], [30.33, -2.10],
          [30.38, -2.09], [30.43, -2.08], [30.48, -2.09]
        ]
      }
    },
    {
      "type": "Feature",
      "properties": {
        "name": "Ruzizi River",
        "type": "Major River",
        "length_km": 117,
        "basin": "Congo Basin",
        "description": "Drains Lake Kivu southward into Lake Tanganyika. Forms part of the western border."
      },
      "geometry": {
        "type": "LineString",
        "coordinates": [
          [28.97, -2.28], [28.96, -2.33], [28.95, -2.38], [28.94, -2.43],
          [28.935, -2.48], [28.93, -2.53], [28.925, -2.58], [28.92, -2.63],
          [28.915, -2.68], [28.91, -2.73], [28.91, -2.78], [28.92, -2.83]
        ]
      }
    },
    {
      "type": "Feature",
      "properties": {
        "name": "Sebeya River",
        "type": "River",
        "length_km": 45,
        "basin": "Congo Basin",
        "description": "Major tributary flowing into Lake Kivu from the east. Important for Rubavu district."
      },
      "geometry": {
        "type": "LineString",
        "coordinates": [
          [29.42, -1.68], [29.38, -1.67], [29.34, -1.66], [29.30, -1.66],
          [29.26, -1.65], [29.22, -1.64], [29.18, -1.63], [29.14, -1.63],
          [29.10, -1.64], [29.06, -1.64], [29.02, -1.65]
        ]
      }
    },
    {
      "type": "Feature",
      "properties": {
        "name": "Muvumba River",
        "type": "River",
        "length_km": 80,
        "basin": "Nile Basin",
        "description": "Flows eastward through Nyagatare district into the Kagera River."
      },
      "geometry": {
        "type": "LineString",
        "coordinates": [
          [29.90, -1.38], [29.95, -1.37], [30.00, -1.36], [30.05, -1.35],
          [30.10, -1.34], [30.15, -1.33], [30.20, -1.32], [30.25, -1.31],
          [30.30, -1.30], [30.35, -1.29], [30.40, -1.28], [30.45, -1.27],
          [30.50, -1.25], [30.55, -1.23], [30.60, -1.22]
        ]
      }
    },
    {
      "type": "Feature",
      "properties": {
        "name": "Base River",
        "type": "River",
        "length_km": 38,
        "basin": "Nile Basin",
        "description": "Tributary of the Nyabarongo River in central Rwanda."
      },
      "geometry": {
        "type": "LineString",
        "coordinates": [
          [29.55, -2.00], [29.58, -1.98], [29.62, -1.97], [29.66, -1.96],
          [29.70, -1.95], [29.74, -1.95], [29.78, -1.94], [29.82, -1.93],
          [29.86, -1.92]
        ]
      }
    },
    {
      "type": "Feature",
      "properties": {
        "name": "Mukungwa River",
        "type": "River",
        "length_km": 55,
        "basin": "Nile Basin",
        "description": "Flows from the Virunga volcanoes south through Musanze. Major tributary of Nyabarongo."
      },
      "geometry": {
        "type": "LineString",
        "coordinates": [
          [29.55, -1.52], [29.56, -1.56], [29.57, -1.60], [29.58, -1.64],
          [29.58, -1.68], [29.57, -1.72], [29.56, -1.76], [29.56, -1.80],
          [29.57, -1.84], [29.58, -1.88]
        ]
      }
    },
    {
      "type": "Feature",
      "properties": {
        "name": "Rusizi River",
        "type": "River",
        "length_km": 30,
        "basin": "Congo Basin",
        "description": "Flows west from the highlands into Lake Kivu near Karongi."
      },
      "geometry": {
        "type": "LineString",
        "coordinates": [
          [29.50, -2.12], [29.46, -2.10], [29.42, -2.08], [29.38, -2.07],
          [29.34, -2.06], [29.30, -2.06], [29.26, -2.07], [29.22, -2.08],
          [29.18, -2.10]
        ]
      }
    }
  ]
}
